GONETS-M 14             
1 44905U 19096A   26194.85409853  .00000058  00000+0  34596-3 0  9993
2 44905  82.5227  68.1073 0014399  93.0738 267.1989 12.42870620296990
GONETS-M 15             
1 44906U 19096B   26194.88343690  .00000005  00000+0 -37029-4 0  9991
2 44906  82.5247  68.5549 0016039 114.8272 245.4478 12.42882746296964
GONETS-M 16             
1 44907U 19096C   26194.82875738  .00000016  00000+0  43877-4 0  9998
2 44907  82.5192  67.5285 0010950 154.2150 205.9477 12.42892156296943
RS-44 & BREEZE-KM R/B   
1 44909U 19096E   26194.82115456  .00000000  00000+0 -51609-4 0  9990
2 44909  82.5240 322.0071 0218543  82.1898 280.3952 12.79748918305758
JILIN-1 KUANFU 01       
1 45016U 20003A   26194.84463877  .00001491  00000+0  93411-4 0  9996
2 45016  97.5022 268.2805 0009140 201.8824 158.2017 15.10862798359359
XINGYUN-2 01            
1 45602U 20028A   26194.88100426  .00000579  00000+0  37471-4 0  9996
2 45602  97.4872 186.7547 0010948 107.5163 252.7265 15.11910808338871
XINGYUN-2 02            
1 45603U 20028B   26194.86442291  .00001003  00000+0  62727-4 0  9999
2 45603  97.5076 200.3882 0010976 169.8979 190.2474 15.11636905338861
HAIYANG-1D              
1 45721U 20036A   26194.83320656 -.00000062  00000+0 -66910-5 0  9991
2 45721  98.4554 135.9343 0004033  73.3255 286.8373 14.34181175318799
M2 PATHFINDER           
1 45727U 20037E   26194.51327424  .00000804  00000+0  61445-4 0  9992
2 45727  97.8145  26.0427 0013053  67.6872 292.5736 15.04788602329458
GAOFEN DUOMO (GFDM)     
1 45856U 20042A   26194.83345405 -.00000109  00000+0 -85275-5 0  9993
2 45856  97.7740 253.7487 0010787 355.0954   5.0149 14.76912454324948
ZIYUAN 3-03 (ZY 3-03)   
1 45939U 20051A   26194.88840512 -.00000088  00000+0 -80133-6 0  9994
2 45939  97.5373 261.9051 0002684 253.9846 106.1093 15.21191714331400
NEMO-HD                 
1 46277U 20061F   26194.81632291  .00006752  00000+0  14449-3 0  9993
2 46277  97.1910 256.5071 0000980  91.9646 268.1716 15.45119527326094
NAPA-1                  
1 46320U 20061BA  26194.87064737  .00060816  00000+0  46843-3 0  9996
2 46320  97.2447 269.9968 0002432 178.2307 181.8965 15.71809754325924
JILIN-1 GAOFEN 3E       
1 46457U 20065D   26194.81530979  .00051567  00000+0  48154-3 0  9991
2 46457  97.2216 248.1008 0010415  76.5358 283.7063 15.67087901323925
JILIN-1 GAOFEN 3F       
1 46458U 20065E   26194.82701685  .00039667  00000+0  42215-3 0  9996
2 46458  97.2174 245.3114 0011779  62.6818 297.5639 15.63828248323865
JILIN-1 GAOFEN 3G       
1 46459U 20065F   26194.85135405  .00085446  00000+0  53166-3 0  9994
2 46459  97.2232 252.6315 0005282 280.5767  79.4904 15.76693044324132
JILIN-1 GAOFEN 3H       
1 46460U 20065G   26194.82724267  .00068715  00000+0  52205-3 0  9996
2 46460  97.2180 248.7519 0006232 207.3569 152.7368 15.72088075324060
HAIYANG-2C              
1 46469U 20066A   26194.91482216  .00000065  00000+0  13302-3 0  9990
2 46469  65.9958 148.7381 0007686 237.2183 122.8146 13.83373323293192
HJ-2A                   
1 46478U 20067A   26194.86555943  .00000569  00000+0  88737-4 0  9997
2 46478  97.8827 272.6062 0004013 158.8149 201.3228 14.76548916312196
HJ-2B                   
1 46479U 20067B   26194.83428242  .00000073  00000+0  17677-4 0  9991
2 46479  97.8892 273.6190 0001914 105.9245 254.2176 14.76508471312190
GONETS-M 17             
1 46486U 20068A   26194.85418503 -.00000007  00000+0 -11995-3 0  9996
2 46486  82.5005 330.9119 0021876 339.6439  20.3766 12.42873988262474
GONETS-M 18             
1 46487U 20068B   26194.81783171  .00000033  00000+0  16873-3 0  9996
2 46487  82.4958 330.0422 0019110 336.3022  23.7175 12.42874985262456
GONETS-M 19             
1 46488U 20068C   26194.87337353  .00000049  00000+0  28072-3 0  9991
2 46488  82.4983 330.4629 0013119 353.0774   7.0123 12.42892984262560
DEKART                  
1 46493U 20068H   26194.82296843  .00007399  00000+0  20062-3 0  9996
2 46493  97.8736 206.0119 0009103 177.6047 182.5242 15.37929365319863
NORBI                   
1 46494U 20068J   26194.77173104  .00014851  00000+0  27037-3 0  9995
2 46494  97.8612 213.1017 0008205 148.0942 212.0806 15.49577596320327
SALSAT                  
1 46495U 20068K   26194.50246524  .00004373  00000+0  15263-3 0  9990
2 46495  97.8854 199.1769 0008994 199.0888 161.0016 15.30157505319387
ICEYE-X6                
1 46497U 20068M   26194.85955049  .00001855  00000+0  13669-3 0  9999
2 46497  98.0987 189.8093 0007359  14.1122 346.0306 15.04662722317240
NETSAT-4                
1 46504U 20068U   26194.82070587  .00011018  00000+0  23788-3 0  9995
2 46504  97.8600 205.2188 0004576 198.4537 161.6545 15.44726306319881
