OBJECT_NAME,OBJECT_ID,EPOCH,MEAN_MOTION,ECCENTRICITY,INCLINATION,RA_OF_ASC_NODE,ARG_OF_PERICENTER,MEAN_ANOMALY,EPHEMERIS_TYPE,CLASSIFICATION_TYPE,NORAD_CAT_ID,ELEMENT_SET_NO,REV_AT_EPOCH,BSTAR,MEAN_MOTION_DOT,MEAN_MOTION_DDOT
GONETS-M 14,2019-096A,2026-07-13T20:29:54.112992,12.42870620,.0014399,82.5227,68.1073,93.0738,267.1989,0,U,44905,999,29699,.34596E-3,.58E-6,0
GONETS-M 15,2019-096B,2026-07-13T21:12:08.948160,12.42882746,.0016039,82.5247,68.5549,114.8272,245.4478,0,U,44906,999,29696,-.37029E-4,.5E-7,0
GONETS-M 16,2019-096C,2026-07-13T19:53:24.637632,12.42892156,.001095,82.5192,67.5285,154.2150,205.9477,0,U,44907,999,29694,.43877E-4,.16E-6,0
RS-44 & BREEZE-KM R/B,2019-096E,2026-07-13T19:42:27.753984,12.79748918,.0218543,82.5240,322.0071,82.1898,280.3952,0,U,44909,999,30575,-.51609E-4,0,0
JILIN-1 KUANFU 01,2020-003A,2026-07-13T20:16:16.789728,15.10862798,.000914,97.5022,268.2805,201.8824,158.2017,0,U,45016,999,35935,.93411E-4,.1491E-4,0
XINGYUN-2 01,2020-028A,2026-07-13T21:08:38.768064,15.11910808,.0010948,97.4872,186.7547,107.5163,252.7265,0,U,45602,999,33887,.37471E-4,.579E-5,0
XINGYUN-2 02,2020-028B,2026-07-13T20:44:46.139424,15.11636905,.0010976,97.5076,200.3882,169.8979,190.2474,0,U,45603,999,33886,.62727E-4,.1003E-4,0
HAIYANG-1D,2020-036A,2026-07-13T19:59:49.046784,14.34181175,.0004033,98.4554,135.9343,73.3255,286.8373,0,U,45721,999,31879,-.6691E-5,-.62E-6,0
M2 PATHFINDER,2020-037E,2026-07-13T12:19:06.894336,15.04788602,.00130535,97.8145,26.0427,67.6872,292.5736,0,U,45727,999,32945,.61445038E-4,.804E-5,0
GAOFEN DUOMO (GFDM),2020-042A,2026-07-13T20:00:10.429920,14.76912454,.0010787,97.7740,253.7487,355.0954,5.0149,0,U,45856,999,32494,-.85275E-5,-.109E-5,0
ZIYUAN 3-03 (ZY 3-03),2020-051A,2026-07-13T21:19:18.202368,15.21191714,.0002684,97.5373,261.9051,253.9846,106.1093,0,U,45939,999,33140,-.80133E-6,-.88E-6,0
NEMO-HD,2020-061F,2026-07-13T19:35:30.299424,15.45119527,.000098,97.1910,256.5071,91.9646,268.1716,0,U,46277,999,32609,.14449E-3,.6752E-4,0
NAPA-1,2020-061BA,2026-07-13T20:53:43.932768,15.71809754,.0002432,97.2447,269.9968,178.2307,181.8965,0,U,46320,999,32592,.46843E-3,.60816E-3,0
JILIN-1 GAOFEN 3E,2020-065D,2026-07-13T19:34:02.765856,15.67087901,.0010415,97.2216,248.1008,76.5358,283.7063,0,U,46457,999,32392,.48154E-3,.51567E-3,0
JILIN-1 GAOFEN 3F,2020-065E,2026-07-13T19:50:54.255840,15.63828248,.0011779,97.2174,245.3114,62.6818,297.5639,0,U,46458,999,32386,.42215E-3,.39667E-3,0
JILIN-1 GAOFEN 3G,2020-065F,2026-07-13T20:25:56.989920,15.76693044,.0005282,97.2232,252.6315,280.5767,79.4904,0,U,46459,999,32413,.53166E-3,.85446E-3,0
JILIN-1 GAOFEN 3H,2020-065G,2026-07-13T19:51:13.766688,15.72088075,.0006232,97.2180,248.7519,207.3569,152.7368,0,U,46460,999,32406,.52205E-3,.68715E-3,0
HAIYANG-2C,2020-066A,2026-07-13T21:57:20.634624,13.83373323,.0007686,65.9958,148.7381,237.2183,122.8146,0,U,46469,999,29319,.13302E-3,.65E-6,0
HJ-2A,2020-067A,2026-07-13T20:46:24.334752,14.76548916,.0004013,97.8827,272.6062,158.8149,201.3228,0,U,46478,999,31219,.88737E-4,.569E-5,0
HJ-2B,2020-067B,2026-07-13T20:01:22.001088,14.76508471,.0001914,97.8892,273.6190,105.9245,254.2176,0,U,46479,999,31219,.17677E-4,.73E-6,0
GONETS-M 17,2020-068A,2026-07-13T20:30:01.586592,12.42873988,.0021876,82.5005,330.9119,339.6439,20.3766,0,U,46486,999,26247,-.11995E-3,-.7E-7,0
GONETS-M 18,2020-068B,2026-07-13T19:37:40.659744,12.42874985,.001911,82.4958,330.0422,336.3022,23.7175,0,U,46487,999,26245,.16873E-3,.33E-6,0
GONETS-M 19,2020-068C,2026-07-13T20:57:39.472992,12.42892984,.0013119,82.4983,330.4629,353.0774,7.0123,0,U,46488,999,26256,.28072E-3,.49E-6,0
DEKART,2020-068H,2026-07-13T19:45:04.472352,15.37929365,.0009103,97.8736,206.0119,177.6047,182.5242,0,U,46493,999,31986,.20062E-3,.7399E-4,0
NORBI,2020-068J,2026-07-13T18:31:17.561856,15.49577596,.0008205,97.8612,213.1017,148.0942,212.0806,0,U,46494,999,32032,.27037E-3,.14851E-3,0
SALSAT,2020-068K,2026-07-13T12:03:32.996736,15.30157505,.00089942,97.8854,199.1769,199.0888,161.0016,0,U,46495,999,31938,.15262836E-3,.4373E-4,0
ICEYE-X6,2020-068M,2026-07-13T20:37:45.162336,15.04662722,.0007359,98.0987,189.8093,14.1122,346.0306,0,U,46497,999,31724,.13669E-3,.1855E-4,0
NETSAT-4,2020-068U,2026-07-13T19:41:48.987168,15.44726306,.0004576,97.8600,205.2188,198.4537,161.6545,0,U,46504,999,31988,.23788E-3,.11018E-3,0
